format  = 'OEF2.0'       ! file format
rectype = 'ML'           ! record type (1L/ML)
refsys  = ECLM J2000     ! default reference system
END_OF_HEADER
2018VP1
! Equinoctial elements: a, e*sin(LP), e*cos(LP), tan(i/2)*sin(LN), tan(i/2)*cos(LN), mean long.
 EQU   1.5881497559207589E+00  -0.037761493287417   0.428349632624671    0.018136658554010    0.021742631955843  14.9386830433169
 MJD     58430.299591399 TDT
 MAG  30.865  0.150
! Non-grav parameters: model used, actual number in use, dimension
 LSP   0  0    6
! RMS    5.66778E-04   3.33640E-05   2.25727E-04   7.59772E-06   9.13987E-06   1.37733E-02
! EIG   8.38066E-10   1.69716E-09   1.28167E-08   5.23083E-08   6.36449E-07   6.56682E-04
! WEA   0.86309  -0.05080   0.34374   0.01157   0.01392  -0.36607
 COV   3.212371896218492E-07 -1.890888042046556E-08  1.279370251095811E-07
 COV   4.306149504229515E-09  5.180213121398058E-09 -7.806384186128134E-06
 COV   1.113155399718790E-09 -7.530754184805629E-09 -2.534799484940481E-10
 COV  -3.049291243327506E-10  4.595165457614499E-07  5.095265031366585E-08
 COV   1.714984526300696E-09  2.063091894983725E-09 -3.109000937048165E-06
 COV   5.772527813193308E-11  6.944207925149469E-11 -1.046445200258212E-07
 COV   8.353717813304041E-11 -1.258850849123837E-07  1.897040272478581E-04
 NOR   2.792906501841200E+15  1.091214279085640E+16 -1.547061570068868E+16
 NOR   1.761621586690132E+16 -1.570584941749150E+16 -1.657511435714105E+14
 NOR   6.985168079071240E+17 -4.787110160483813E+17 -3.804184995389532E+16
 NOR   3.494747873155191E+16 -9.086207494297492E+15  3.524435742182211E+17
 NOR  -2.874629116079826E+16  2.496178291549370E+16  6.299748386561305E+15
 NOR   1.852710904000144E+17 -1.661603209855957E+17  3.378845532988509E+14
 NOR   1.496956716339183E+17 -3.141838806716318E+14  1.184111705066130E+14